ORBCOMM FM103           
1 40091U 14040F   26002.75892777  .00001582  00000+0  37309-3 0  9995
2 40091  47.0039 155.0373 0001323 138.9440 221.1546 14.58576206593238
ORBCOMM FM114           
1 41179U 15081A   26002.56989561  .00001494  00000+0  35419-3 0  9998
2 41179  47.0053  64.8834 0002293 187.1529 172.9324 14.58598772533572
ORBCOMM FM119           
1 41180U 15081B   26002.63518107  .00001615  00000+0  38035-3 0  9994
2 41180  47.0019 333.9343 0001771 263.8551  96.2133 14.58548843534838
ORBCOMM FM105           
1 41181U 15081C   26002.38425712  .00000720  00000+0  24705-3 0  9991
2 41181  47.0029 359.5451 0001113 165.0485 195.0428 14.45427069529564
ORBCOMM FM110           
1 41182U 15081D   26002.42244192  .00002328  00000+0  53108-3 0  9993
2 41182  47.0018  65.0727 0002019   3.7552 356.3349 14.58638412533421
ORBCOMM FM118           
1 41183U 15081E   26002.59403058  .00001867  00000+0  43321-3 0  9993
2 41183  47.0047  64.5642 0003007 328.1825  31.8879 14.58625652533558
ORBCOMM FM112           
1 41184U 15081F   26002.59666168  .00001816  00000+0  42227-3 0  9995
2 41184  47.0005 333.0795 0001358 204.3263 155.7559 14.58628731534771
ORBCOMM FM113           
1 41185U 15081G   26002.29997999  .00001765  00000+0  41152-3 0  9991
2 41185  47.0022 334.8409 0001335 220.8179 139.2607 14.58623218534716
